{
  "links" : {
    "next" : "https://api.nasa.gov/neo/rest/v1/feed?start_date=2015-12-09&end_date=2015-12-09&detailed=true&api_key=t0TVs3DtDT2H8Oy2Zy8m2eVrNsAVKAexjcZXUckd",
    "prev" : "https://api.nasa.gov/neo/rest/v1/feed?start_date=2015-12-07&end_date=2015-12-07&detailed=true&api_key=t0TVs3DtDT2H8Oy2Zy8m2eVrNsAVKAexjcZXUckd",
    "self" : "https://api.nasa.gov/neo/rest/v1/feed?start_date=2015-12-08&end_date=2015-12-08&detailed=true&api_key=t0TVs3DtDT2H8Oy2Zy8m2eVrNsAVKAexjcZXUckd"
  },
  "element_count" : 12,
  "near_earth_objects" : {
    "2015-12-08" : [ {
      "links" : {
        "self" : "https://api.nasa.gov/neo/rest/v1/neo/3736239?api_key=t0TVs3DtDT2H8Oy2Zy8m2eVrNsAVKAexjcZXUckd"
      },
      "neo_reference_id" : "3736239",
      "name" : "(2015 XU129)",
      "nasa_jpl_url" : "http://ssd.jpl.nasa.gov/sbdb.cgi?sstr=3736239",
      "absolute_magnitude_h" : 24.7,
      "estimated_diameter" : {
        "kilometers" : {
          "estimated_diameter_min" : 0.0305179233,
          "estimated_diameter_max" : 0.0682401509
        },
        "meters" : {
          "estimated_diameter_min" : 30.5179232594,
          "estimated_diameter_max" : 68.2401509401
        },
        "miles" : {
          "estimated_diameter_min" : 0.0189629525,
          "estimated_diameter_max" : 0.0424024508
        },
        "feet" : {
          "estimated_diameter_min" : 100.1244233463,
          "estimated_diameter_max" : 223.8850168104
        }
      },
      "is_potentially_hazardous_asteroid" : false,
      "close_approach_data" : [ {
        "close_approach_date" : "2015-12-08",
        "epoch_date_close_approach" : 1449561600000,
        "relative_velocity" : {
          "kilometers_per_second" : "7.2228230538",
          "kilometers_per_hour" : "26002.1629937288",
          "miles_per_hour" : "16156.7328890756"
        },
        "miss_distance" : {
          "astronomical" : "0.1555872724",
          "lunar" : "60.5234489441",
          "kilometers" : "23275524",
          "miles" : "14462740"
        },
        "orbiting_body" : "Earth"
      } ],
      "orbital_data" : {
        "orbit_id" : "4",
        "orbit_determination_date" : "2017-04-06 08:30:05",
        "orbit_uncertainty" : "8",
        "minimum_orbit_intersection" : ".154374",
        "jupiter_tisserand_invariant" : "4.382",
        "epoch_osculation" : "2457363.5",
        "eccentricity" : ".266255703740422",
        "semi_major_axis" : "1.549600636545812",
        "inclination" : "13.30798062891269",
        "ascending_node_longitude" : "73.27717857978085",
        "orbital_period" : "704.5764223438533",
        "perihelion_distance" : "1.137010628545701",
        "perihelion_argument" : "10.22810481529254",
        "aphelion_distance" : "1.962190644545923",
        "perihelion_time" : "2457374.307848463283",
        "mean_anomaly" : "354.4777808007844",
        "mean_motion" : ".5109452836960101",
        "equinox" : "J2000"
      }
    }, {
      "links" : {
        "self" : "https://api.nasa.gov/neo/rest/v1/neo/3738553?api_key=t0TVs3DtDT2H8Oy2Zy8m2eVrNsAVKAexjcZXUckd"
      },
      "neo_reference_id" : "3738553",
      "name" : "(2015 XH379)",
      "nasa_jpl_url" : "http://ssd.jpl.nasa.gov/sbdb.cgi?sstr=3738553",
      "absolute_magnitude_h" : 25.0,
      "estimated_diameter" : {
        "kilometers" : {
          "estimated_diameter_min" : 0.02658,
          "estimated_diameter_max" : 0.0594346868
        },
        "meters" : {
          "estimated_diameter_min" : 26.58,
          "estimated_diameter_max" : 59.4346868419
        },
        "miles" : {
          "estimated_diameter_min" : 0.0165160412,
          "estimated_diameter_max" : 0.0369309908
        },
        "feet" : {
          "estimated_diameter_min" : 87.2047272,
          "estimated_diameter_max" : 194.9956979785
        }
      },
      "is_potentially_hazardous_asteroid" : false,
      "close_approach_data" : [ {
        "close_approach_date" : "2015-12-08",
        "epoch_date_close_approach" : 1449561600000,
        "relative_velocity" : {
          "kilometers_per_second" : "7.4967849492",
          "kilometers_per_hour" : "26988.4258170382",
          "miles_per_hour" : "16769.5582528147"
        },
        "miss_distance" : {
          "astronomical" : "0.0771193952",
          "lunar" : "29.9994449615",
          "kilometers" : "11536897",
          "miles" : "7168695.5"
        },
        "orbiting_body" : "Earth"
      } ],
      "orbital_data" : {
        "orbit_id" : "5",
        "orbit_determination_date" : "2017-04-06 08:29:48",
        "orbit_uncertainty" : "9",
        "minimum_orbit_intersection" : ".0281197",
        "jupiter_tisserand_invariant" : "4.562",
        "epoch_osculation" : "2457365.5",
        "eccentricity" : ".3056472946367099",
        "semi_major_axis" : "1.455688362034545",
        "inclination" : "11.42038201239694",
        "ascending_node_longitude" : "86.45227118906597",
        "orbital_period" : "641.5064712835914",
        "perihelion_distance" : "1.010761152344543",
        "perihelion_argument" : "353.0753872600225",
        "aphelion_distance" : "1.900615571724548",
        "perihelion_time" : "2457364.871868232618",
        "mean_anomaly" : ".3524943962062631",
        "mean_motion" : ".5611790622776966",
        "equinox" : "J2000"
      }
    }, {
      "links" : {
        "self" : "https://api.nasa.gov/neo/rest/v1/neo/3739168?api_key=t0TVs3DtDT2H8Oy2Zy8m2eVrNsAVKAexjcZXUckd"
      },
      "neo_reference_id" : "3739168",
      "name" : "(2016 AN2)",
      "nasa_jpl_url" : "http://ssd.jpl.nasa.gov/sbdb.cgi?sstr=3739168",
      "absolute_magnitude_h" : 24.1,
      "estimated_diameter" : {
        "kilometers" : {
          "estimated_diameter_min" : 0.040230458,
          "estimated_diameter_max" : 0.0899580388
        },
        "meters" : {
          "estimated_diameter_min" : 40.2304579834,
          "estimated_diameter_max" : 89.9580388169
        },
        "miles" : {
          "estimated_diameter_min" : 0.0249980399,
          "estimated_diameter_max" : 0.0558973165
        },
        "feet" : {
          "estimated_diameter_min" : 131.9896957704,
          "estimated_diameter_max" : 295.1379320721
        }
      },
      "is_potentially_hazardous_asteroid" : false,
      "close_approach_data" : [ {
        "close_approach_date" : "2015-12-08",
        "epoch_date_close_approach" : 1449561600000,
        "relative_velocity" : {
          "kilometers_per_second" : "13.1290476003",
          "kilometers_per_hour" : "47264.5713612312",
          "miles_per_hour" : "29368.366577205"
        },
        "miss_distance" : {
          "astronomical" : "0.094605548",
          "lunar" : "36.8015594482",
          "kilometers" : "14152789",
          "miles" : "8794135"
        },
        "orbiting_body" : "Earth"
      } ],
      "orbital_data" : {
        "orbit_id" : "5",
        "orbit_determination_date" : "2017-04-06 08:29:29",
        "orbit_uncertainty" : "9",
        "minimum_orbit_intersection" : ".0254831",
        "jupiter_tisserand_invariant" : "4.157",
        "epoch_osculation" : "2457396.5",
        "eccentricity" : ".5505836963499644",
        "semi_major_axis" : "1.607964470528061",
        "inclination" : "7.314453322172136",
        "ascending_node_longitude" : "94.12741678934943",
        "orbital_period" : "744.7544372725303",
        "perihelion_distance" : ".7226454487453079",
        "perihelion_argument" : "272.4282978226785",
        "aphelion_distance" : "2.493283492310815",
        "perihelion_time" : "2457318.704912966857",
        "mean_anomaly" : "37.60465185611653",
        "mean_motion" : ".4833808057839931",
        "equinox" : "J2000"
      }
    } ]
  }
}